STARLINK-35574          
1 66111U 25236AB  25309.25001157 -.00161911  00000+0 -11187-2 0  9993
2 66111  53.1577 326.1454 0001168  78.2529 250.4410 15.74267253  3796
STARLINK-35531          
1 66112U 25236AC  25309.25001157 -.00064603  00000+0 -43938-3 0  9994
2 66112  53.1580 326.1374 0000895  97.4490 235.0840 15.74231762  3857
STARLINK-35491          
1 66113U 25236AD  25309.25001157 -.00163982  00000+0 -11329-2 0  9993
2 66113  53.1578 326.1415 0001039  84.7293 245.8819 15.74276374  3855
STARLINK-35496          
1 66114U 25237A   25309.25001157  .00057408  00000+0  39439-3 0  9991
2 66114  53.1574 265.9059 0000741  86.7533 215.8034 15.74142546  3459
STARLINK-35428          
1 66115U 25237B   25309.25001157  .00063992  00000+0  43869-3 0  9999
2 66115  53.1572 265.9017 0000817  93.1370 211.3328 15.74147868  3456
STARLINK-35573          
1 66116U 25237C   25309.25001157  .00029092  00000+0  20247-3 0  9998
2 66116  53.1573 265.8979 0001108  84.1974 222.1908 15.74163650  3459
STARLINK-35572          
1 66117U 25237D   25309.25001157  .00010941  00000+0  78974-4 0  9993
2 66117  53.1572 265.8902 0001222  88.5626 221.6619 15.74168098  3458
STARLINK-35468          
1 66118U 25237E   25309.25001157  .00071822  00000+0  49149-3 0  9990
2 66118  53.1573 265.8938 0000988  85.6806 222.6315 15.74142882  3452
STARLINK-35547          
1 66119U 25237F   25309.25001157 -.00010189  00000+0 -65347-4 0  9991
2 66119  53.1564 265.8775 0001185  85.0925 230.8803 15.74191962  3454
STARLINK-35553          
1 66120U 25237G   25309.25001157  .00002399  00000+0  20692-4 0  9999
2 66120  53.1571 265.8859 0001322  83.6640 228.4854 15.74167968  3456
STARLINK-35631          
1 66121U 25237H   25309.25001157  .00060224  00000+0  41332-3 0  9994
2 66121  53.1573 265.8809 0000935  81.6345 232.4411 15.74146708  3456
STARLINK-35653          
1 66122U 25237J   25309.25001157 -.00090299  00000+0 -61779-3 0  9999
2 66122  53.1575 265.8733 0001209 102.7011 215.1791 15.74228668  3450
