CCSDS_OMM_VERS = 2.0
CREATION_DATE  = 
ORIGINATOR     = 

OBJECT_NAME    = STARLINK-35574
OBJECT_ID      = 2025-236AB
CENTER_NAME    = EARTH
REF_FRAME      = TEME
TIME_SYSTEM    = UTC
MEAN_ELEMENT_THEORY = SGP/SGP4

EPOCH          = 2025-11-05T06:00:00.999648
MEAN_MOTION    = 15.74267253
ECCENTRICITY   = .00011683
INCLINATION    = 53.1577
RA_OF_ASC_NODE = 326.1454
ARG_OF_PERICENTER = 78.2529
MEAN_ANOMALY   = 250.4410

EPHEMERIS_TYPE = 0
CLASSIFICATION_TYPE = U
NORAD_CAT_ID   = 66111
ELEMENT_SET_NO = 999
REV_AT_EPOCH   = 379
BSTAR          = -.11187269E-2
MEAN_MOTION_DOT = -.161911E-2
MEAN_MOTION_DDOT = 0

CCSDS_OMM_VERS = 2.0
CREATION_DATE  = 
ORIGINATOR     = 

OBJECT_NAME    = STARLINK-35531
OBJECT_ID      = 2025-236AC
CENTER_NAME    = EARTH
REF_FRAME      = TEME
TIME_SYSTEM    = UTC
MEAN_ELEMENT_THEORY = SGP/SGP4

EPOCH          = 2025-11-05T06:00:00.999648
MEAN_MOTION    = 15.74231762
ECCENTRICITY   = .00008951
INCLINATION    = 53.1580
RA_OF_ASC_NODE = 326.1374
ARG_OF_PERICENTER = 97.4490
MEAN_ANOMALY   = 235.0840

EPHEMERIS_TYPE = 0
CLASSIFICATION_TYPE = U
NORAD_CAT_ID   = 66112
ELEMENT_SET_NO = 999
REV_AT_EPOCH   = 385
BSTAR          = -.4393803E-3
MEAN_MOTION_DOT = -.64603E-3
MEAN_MOTION_DDOT = 0

CCSDS_OMM_VERS = 2.0
CREATION_DATE  = 
ORIGINATOR     = 

OBJECT_NAME    = STARLINK-35491
OBJECT_ID      = 2025-236AD
CENTER_NAME    = EARTH
REF_FRAME      = TEME
TIME_SYSTEM    = UTC
MEAN_ELEMENT_THEORY = SGP/SGP4

EPOCH          = 2025-11-05T06:00:00.999648
MEAN_MOTION    = 15.74276374
ECCENTRICITY   = .00010391
INCLINATION    = 53.1578
RA_OF_ASC_NODE = 326.1415
ARG_OF_PERICENTER = 84.7293
MEAN_ANOMALY   = 245.8819

EPHEMERIS_TYPE = 0
CLASSIFICATION_TYPE = U
NORAD_CAT_ID   = 66113
ELEMENT_SET_NO = 999
REV_AT_EPOCH   = 385
BSTAR          = -.11329417E-2
MEAN_MOTION_DOT = -.163982E-2
MEAN_MOTION_DDOT = 0

CCSDS_OMM_VERS = 2.0
CREATION_DATE  = 
ORIGINATOR     = 

OBJECT_NAME    = STARLINK-35496
OBJECT_ID      = 2025-237A
CENTER_NAME    = EARTH
REF_FRAME      = TEME
TIME_SYSTEM    = UTC
MEAN_ELEMENT_THEORY = SGP/SGP4

EPOCH          = 2025-11-05T06:00:00.999648
MEAN_MOTION    = 15.74142546
ECCENTRICITY   = .00007419
INCLINATION    = 53.1574
RA_OF_ASC_NODE = 265.9059
ARG_OF_PERICENTER = 86.7533
MEAN_ANOMALY   = 215.8034

EPHEMERIS_TYPE = 0
CLASSIFICATION_TYPE = U
NORAD_CAT_ID   = 66114
ELEMENT_SET_NO = 999
REV_AT_EPOCH   = 345
BSTAR          = .39439339E-3
MEAN_MOTION_DOT = .57408E-3
MEAN_MOTION_DDOT = 0

CCSDS_OMM_VERS = 2.0
CREATION_DATE  = 
ORIGINATOR     = 

OBJECT_NAME    = STARLINK-35428
OBJECT_ID      = 2025-237B
CENTER_NAME    = EARTH
REF_FRAME      = TEME
TIME_SYSTEM    = UTC
MEAN_ELEMENT_THEORY = SGP/SGP4

EPOCH          = 2025-11-05T06:00:00.999648
MEAN_MOTION    = 15.74147868
ECCENTRICITY   = .00008171
INCLINATION    = 53.1572
RA_OF_ASC_NODE = 265.9017
ARG_OF_PERICENTER = 93.1370
MEAN_ANOMALY   = 211.3328

EPHEMERIS_TYPE = 0
CLASSIFICATION_TYPE = U
NORAD_CAT_ID   = 66115
ELEMENT_SET_NO = 999
REV_AT_EPOCH   = 345
BSTAR          = .43868546E-3
MEAN_MOTION_DOT = .63992E-3
MEAN_MOTION_DDOT = 0

CCSDS_OMM_VERS = 2.0
CREATION_DATE  = 
ORIGINATOR     = 

OBJECT_NAME    = STARLINK-35573
OBJECT_ID      = 2025-237C
CENTER_NAME    = EARTH
REF_FRAME      = TEME
TIME_SYSTEM    = UTC
MEAN_ELEMENT_THEORY = SGP/SGP4

EPOCH          = 2025-11-05T06:00:00.999648
MEAN_MOTION    = 15.74163650
ECCENTRICITY   = .00011087
INCLINATION    = 53.1573
RA_OF_ASC_NODE = 265.8979
ARG_OF_PERICENTER = 84.1974
MEAN_ANOMALY   = 222.1908

EPHEMERIS_TYPE = 0
CLASSIFICATION_TYPE = U
NORAD_CAT_ID   = 66116
ELEMENT_SET_NO = 999
REV_AT_EPOCH   = 345
BSTAR          = .20246685E-3
MEAN_MOTION_DOT = .29092E-3
MEAN_MOTION_DDOT = 0

CCSDS_OMM_VERS = 2.0
CREATION_DATE  = 
ORIGINATOR     = 

OBJECT_NAME    = STARLINK-35572
OBJECT_ID      = 2025-237D
CENTER_NAME    = EARTH
REF_FRAME      = TEME
TIME_SYSTEM    = UTC
MEAN_ELEMENT_THEORY = SGP/SGP4

EPOCH          = 2025-11-05T06:00:00.999648
MEAN_MOTION    = 15.74168098
ECCENTRICITY   = .00012228
INCLINATION    = 53.1572
RA_OF_ASC_NODE = 265.8902
ARG_OF_PERICENTER = 88.5626
MEAN_ANOMALY   = 221.6619

EPHEMERIS_TYPE = 0
CLASSIFICATION_TYPE = U
NORAD_CAT_ID   = 66117
ELEMENT_SET_NO = 999
REV_AT_EPOCH   = 345
BSTAR          = .789743E-4
MEAN_MOTION_DOT = .10941E-3
MEAN_MOTION_DDOT = 0

CCSDS_OMM_VERS = 2.0
CREATION_DATE  = 
ORIGINATOR     = 

OBJECT_NAME    = STARLINK-35468
OBJECT_ID      = 2025-237E
CENTER_NAME    = EARTH
REF_FRAME      = TEME
TIME_SYSTEM    = UTC
MEAN_ELEMENT_THEORY = SGP/SGP4

EPOCH          = 2025-11-05T06:00:00.999648
MEAN_MOTION    = 15.74142882
ECCENTRICITY   = .00009888
INCLINATION    = 53.1573
RA_OF_ASC_NODE = 265.8938
ARG_OF_PERICENTER = 85.6806
MEAN_ANOMALY   = 222.6315

EPHEMERIS_TYPE = 0
CLASSIFICATION_TYPE = U
NORAD_CAT_ID   = 66118
ELEMENT_SET_NO = 999
REV_AT_EPOCH   = 345
BSTAR          = .49148773E-3
MEAN_MOTION_DOT = .71822E-3
MEAN_MOTION_DDOT = 0

CCSDS_OMM_VERS = 2.0
CREATION_DATE  = 
ORIGINATOR     = 

OBJECT_NAME    = STARLINK-35547
OBJECT_ID      = 2025-237F
CENTER_NAME    = EARTH
REF_FRAME      = TEME
TIME_SYSTEM    = UTC
MEAN_ELEMENT_THEORY = SGP/SGP4

EPOCH          = 2025-11-05T06:00:00.999648
MEAN_MOTION    = 15.74191962
ECCENTRICITY   = .00011857
INCLINATION    = 53.1564
RA_OF_ASC_NODE = 265.8775
ARG_OF_PERICENTER = 85.0925
MEAN_ANOMALY   = 230.8803

EPHEMERIS_TYPE = 0
CLASSIFICATION_TYPE = U
NORAD_CAT_ID   = 66119
ELEMENT_SET_NO = 999
REV_AT_EPOCH   = 345
BSTAR          = -.65346819E-4
MEAN_MOTION_DOT = -.10189E-3
MEAN_MOTION_DDOT = 0

CCSDS_OMM_VERS = 2.0
CREATION_DATE  = 
ORIGINATOR     = 

OBJECT_NAME    = STARLINK-35553
OBJECT_ID      = 2025-237G
CENTER_NAME    = EARTH
REF_FRAME      = TEME
TIME_SYSTEM    = UTC
MEAN_ELEMENT_THEORY = SGP/SGP4

EPOCH          = 2025-11-05T06:00:00.999648
MEAN_MOTION    = 15.74167968
ECCENTRICITY   = .00013225
INCLINATION    = 53.1571
RA_OF_ASC_NODE = 265.8859
ARG_OF_PERICENTER = 83.6640
MEAN_ANOMALY   = 228.4854

EPHEMERIS_TYPE = 0
CLASSIFICATION_TYPE = U
NORAD_CAT_ID   = 66120
ELEMENT_SET_NO = 999
REV_AT_EPOCH   = 345
BSTAR          = .20691874E-4
MEAN_MOTION_DOT = .2399E-4
MEAN_MOTION_DDOT = 0

CCSDS_OMM_VERS = 2.0
CREATION_DATE  = 
ORIGINATOR     = 

OBJECT_NAME    = STARLINK-35631
OBJECT_ID      = 2025-237H
CENTER_NAME    = EARTH
REF_FRAME      = TEME
TIME_SYSTEM    = UTC
MEAN_ELEMENT_THEORY = SGP/SGP4

EPOCH          = 2025-11-05T06:00:00.999648
MEAN_MOTION    = 15.74146708
ECCENTRICITY   = .00009356
INCLINATION    = 53.1573
RA_OF_ASC_NODE = 265.8809
ARG_OF_PERICENTER = 81.6345
MEAN_ANOMALY   = 232.4411

EPHEMERIS_TYPE = 0
CLASSIFICATION_TYPE = U
NORAD_CAT_ID   = 66121
ELEMENT_SET_NO = 999
REV_AT_EPOCH   = 345
BSTAR          = .41331512E-3
MEAN_MOTION_DOT = .60224E-3
MEAN_MOTION_DDOT = 0

CCSDS_OMM_VERS = 2.0
CREATION_DATE  = 
ORIGINATOR     = 

OBJECT_NAME    = STARLINK-35653
OBJECT_ID      = 2025-237J
CENTER_NAME    = EARTH
REF_FRAME      = TEME
TIME_SYSTEM    = UTC
MEAN_ELEMENT_THEORY = SGP/SGP4

EPOCH          = 2025-11-05T06:00:00.999648
MEAN_MOTION    = 15.74228668
ECCENTRICITY   = .00012091
INCLINATION    = 53.1575
RA_OF_ASC_NODE = 265.8733
ARG_OF_PERICENTER = 102.7011
MEAN_ANOMALY   = 215.1791

EPHEMERIS_TYPE = 0
CLASSIFICATION_TYPE = U
NORAD_CAT_ID   = 66122
ELEMENT_SET_NO = 999
REV_AT_EPOCH   = 345
BSTAR          = -.61779105E-3
MEAN_MOTION_DOT = -.90299E-3
MEAN_MOTION_DDOT = 0

